start=new Date('2022-11-04T00:00:00.000Z').valueOf();
sats=[{"GP_ID":"216861725","INCLINATION":"53.2191","EPOCH":"2022-11-03T16:15:22.996800","MEAN_MOTION_DDOT":"0.0000000000000","LAUNCH_DATE":"2022-02-21","TIME_SYSTEM":"UTC","PERIOD":"95.437","OBJECT_ID":"2022-016Q","FILE":"3644033","CLASSIFICATION_TYPE":"U","ARG_OF_PERICENTER":"40.2973","OBJECT_NAME":"STARLINK-3448","EPHEMERIS_TYPE":"0","APOAPSIS":"541.308","SITE":"AFETR","MEAN_MOTION":"15.08847139","DECAY_DATE":null,"COUNTRY_CODE":"US","TLE_LINE2":"2 51728  53.2191  44.9484 0002290  40.2973 319.8188 15.08847139 39081","SEMIMAJOR_AXIS":"6917.859","NORAD_CAT_ID":"51728","RA_OF_ASC_NODE":"44.9484","BSTAR":"0.00016556000000","REF_FRAME":"TEME","MEAN_ELEMENT_THEORY":"SGP4","ECCENTRICITY":"0.00022900","REV_AT_EPOCH":"3908","RCS_SIZE":"LARGE","MEAN_ANOMALY":"319.8188","ELEMENT_SET_NO":"999","MEAN_MOTION_DOT":"0.00002348","TLE_LINE1":"1 51728U 22016Q   22307.67734950  .00002348  00000-0  16556-3 0  9992","OBJECT_TYPE":"PAYLOAD","PERIAPSIS":"538.139","CENTER_NAME":"EARTH"},{"INCLINATION":"53.2202","GP_ID":"216839108","TIME_SYSTEM":"UTC","MEAN_MOTION_DDOT":"0.0000000000000","LAUNCH_DATE":"2022-02-21","EPOCH":"2022-11-03T18:06:38.721312","CLASSIFICATION_TYPE":"U","OBJECT_ID":"2022-016R","PERIOD":"95.436","FILE":"3644005","DECAY_DATE":null,"COUNTRY_CODE":"US","TLE_LINE2":"2 51729  53.2202  44.5990 0002119  34.6740 325.4390 15.08858274 40220","MEAN_MOTION":"15.08858274","OBJECT_NAME":"STARLINK-3523","ARG_OF_PERICENTER":"34.6740","EPHEMERIS_TYPE":"0","SITE":"AFETR","APOAPSIS":"541.155","BSTAR":"0.00023666000000","RA_OF_ASC_NODE":"44.5990","SEMIMAJOR_AXIS":"6917.825","NORAD_CAT_ID":"51729","RCS_SIZE":"LARGE","REV_AT_EPOCH":"4022","ECCENTRICITY":"0.00021190","MEAN_ELEMENT_THEORY":"SGP4","REF_FRAME":"TEME","ELEMENT_SET_NO":"999","MEAN_ANOMALY":"325.4390","CENTER_NAME":"EARTH","PERIAPSIS":"538.224","MEAN_MOTION_DOT":"0.00003482","TLE_LINE1":"1 51729U 22016R   22307.75461483  .00003482  00000-0  23666-3 0  9990","OBJECT_TYPE":"PAYLOAD"},{"MEAN_MOTION":"15.08849466","DECAY_DATE":null,"COUNTRY_CODE":"US","TLE_LINE2":"2 51730  53.2167  44.9946 0001973  35.9861 324.1264 15.08849466 39083","ARG_OF_PERICENTER":"35.9861","EPHEMERIS_TYPE":"0","OBJECT_NAME":"STARLINK-3530","APOAPSIS":"541.081","SITE":"AFETR","PERIOD":"95.437","OBJECT_ID":"2022-016S","FILE":"3644033","CLASSIFICATION_TYPE":"U","MEAN_MOTION_DDOT":"0.0000000000000","LAUNCH_DATE":"2022-02-21","TIME_SYSTEM":"UTC","EPOCH":"2022-11-03T16:04:47.493696","INCLINATION":"53.2167","GP_ID":"216862727","CENTER_NAME":"EARTH","TLE_LINE1":"1 51730U 22016S   22307.66999414  .00014206  00000-0  90861-3 0  9999","MEAN_MOTION_DOT":"0.00014206","OBJECT_TYPE":"PAYLOAD","PERIAPSIS":"538.352","MEAN_ANOMALY":"324.1264","ELEMENT_SET_NO":"999","MEAN_ELEMENT_THEORY":"SGP4","ECCENTRICITY":"0.00019730","RCS_SIZE":"LARGE","REV_AT_EPOCH":"3908","REF_FRAME":"TEME","NORAD_CAT_ID":"51730","SEMIMAJOR_AXIS":"6917.851","RA_OF_ASC_NODE":"44.9946","BSTAR":"0.00090861000000"},{"APOAPSIS":"541.012","SITE":"AFETR","EPHEMERIS_TYPE":"0","ARG_OF_PERICENTER":"35.9497","OBJECT_NAME":"STARLINK-3514","MEAN_MOTION":"15.08860840","COUNTRY_CODE":"US","TLE_LINE2":"2 51731  53.2204  44.6394 0001923  35.9497 324.1624 15.08860840 40205","DECAY_DATE":null,"FILE":"3644003","OBJECT_ID":"2022-016T","PERIOD":"95.436","CLASSIFICATION_TYPE":"U","EPOCH":"2022-11-03T17:56:02.602176","MEAN_MOTION_DDOT":"0.0000000000000","LAUNCH_DATE":"2022-02-21","TIME_SYSTEM":"UTC","GP_ID":"216838871","INCLINATION":"53.2204","OBJECT_TYPE":"PAYLOAD","MEAN_MOTION_DOT":"0.00001995","TLE_LINE1":"1 51731U 22016T   22307.74725234  .00001995  00000-0  14331-3 0  9995","PERIAPSIS":"538.351","CENTER_NAME":"EARTH","MEAN_ANOMALY":"324.1624","ELEMENT_SET_NO":"999","REF_FRAME":"TEME","ECCENTRICITY":"0.00019230","MEAN_ELEMENT_THEORY":"SGP4","RCS_SIZE":"LARGE","REV_AT_EPOCH":"4020","SEMIMAJOR_AXIS":"6917.817","NORAD_CAT_ID":"51731","BSTAR":"0.00014331000000","RA_OF_ASC_NODE":"44.6394"},{"RCS_SIZE":"LARGE","REV_AT_EPOCH":"4022","MEAN_ELEMENT_THEORY":"SGP4","ECCENTRICITY":"0.00022040","REF_FRAME":"TEME","BSTAR":"0.00025807000000","RA_OF_ASC_NODE":"45.0132","NORAD_CAT_ID":"51732","SEMIMAJOR_AXIS":"6917.849","CENTER_NAME":"EARTH","PERIAPSIS":"538.189","OBJECT_TYPE":"PAYLOAD","TLE_LINE1":"1 51732U 22016U   22307.66630003  .00003823  00000-0  25807-3 0  9998","MEAN_MOTION_DOT":"0.00003823","ELEMENT_SET_NO":"999","MEAN_ANOMALY":"319.1431","TIME_SYSTEM":"UTC","LAUNCH_DATE":"2022-02-21","MEAN_MOTION_DDOT":"0.0000000000000","EPOCH":"2022-11-03T15:59:28.322592","INCLINATION":"53.2175","GP_ID":"216862226","COUNTRY_CODE":"US","TLE_LINE2":"2 51732  53.2175  45.0132 0002204  40.9727 319.1431 15.08850392 40226","DECAY_DATE":null,"MEAN_MOTION":"15.08850392","APOAPSIS":"541.238","SITE":"AFETR","ARG_OF_PERICENTER":"40.9727","OBJECT_NAME":"STARLINK-3518","EPHEMERIS_TYPE":"0","CLASSIFICATION_TYPE":"U","FILE":"3644033","OBJECT_ID":"2022-016U","PERIOD":"95.437"},{"PERIOD":"95.436","OBJECT_ID":"2022-016V","FILE":"3644033","CLASSIFICATION_TYPE":"U","ARG_OF_PERICENTER":"43.7713","OBJECT_NAME":"STARLINK-3525","EPHEMERIS_TYPE":"0","SITE":"AFETR","APOAPSIS":"540.910","MEAN_MOTION":"15.08863099","DECAY_DATE":null,"TLE_LINE2":"2 51733  53.2198  44.9649 0001785  43.7713 316.3421 15.08863099 39080","COUNTRY_CODE":"US","GP_ID":"216861976","INCLINATION":"53.2198","EPOCH":"2022-11-03T16:10:03.315072","MEAN_MOTION_DDOT":"0.0000000000000","LAUNCH_DATE":"2022-02-21","TIME_SYSTEM":"UTC","MEAN_ANOMALY":"316.3421","ELEMENT_SET_NO":"999","MEAN_MOTION_DOT":"0.00001611","TLE_LINE1":"1 51733U 22016V   22307.67364948  .00001611  00000-0  11925-3 0  9991","OBJECT_TYPE":"PAYLOAD","PERIAPSIS":"538.440","CENTER_NAME":"EARTH","SEMIMAJOR_AXIS":"6917.810","NORAD_CAT_ID":"51733","BSTAR":"0.00011925000000","RA_OF_ASC_NODE":"44.9649","REF_FRAME":"TEME","ECCENTRICITY":"0.00017850","MEAN_ELEMENT_THEORY":"SGP4","RCS_SIZE":"LARGE","REV_AT_EPOCH":"3908"},{"CENTER_NAME":"EARTH","OBJECT_TYPE":"PAYLOAD","TLE_LINE1":"1 51734U 22016W   22307.65526156  .00002101  00000-0  15001-3 0  9995","MEAN_MOTION_DOT":"0.00002101","PERIAPSIS":"538.083","MEAN_ANOMALY":"330.2212","ELEMENT_SET_NO":"999","ECCENTRICITY":"0.00023120","MEAN_ELEMENT_THEORY":"SGP4","RCS_SIZE":"LARGE","REV_AT_EPOCH":"3907","REF_FRAME":"TEME","NORAD_CAT_ID":"51734","SEMIMAJOR_AXIS":"6917.817","RA_OF_ASC_NODE":"45.0509","BSTAR":"0.00015001000000","MEAN_MOTION":"15.08860679","COUNTRY_CODE":"US","TLE_LINE2":"2 51734  53.2191  45.0509 0002312  29.8912 330.2212 15.08860679 39077","DECAY_DATE":null,"APOAPSIS":"541.282","SITE":"AFETR","EPHEMERIS_TYPE":"0","OBJECT_NAME":"STARLINK-3450","ARG_OF_PERICENTER":"29.8912","FILE":"3644033","OBJECT_ID":"2022-016W","PERIOD":"95.436","CLASSIFICATION_TYPE":"U","MEAN_MOTION_DDOT":"0.0000000000000","LAUNCH_DATE":"2022-02-21","TIME_SYSTEM":"UTC","EPOCH":"2022-11-03T15:43:34.598784","INCLINATION":"53.2191","GP_ID":"216863228"},{"GP_ID":"216862973","INCLINATION":"53.2171","EPOCH":"2022-11-03T15:54:10.813824","MEAN_MOTION_DDOT":"0.0000000000000","LAUNCH_DATE":"2022-02-21","TIME_SYSTEM":"UTC","FILE":"3644033","OBJECT_ID":"2022-016X","PERIOD":"95.437","CLASSIFICATION_TYPE":"U","SITE":"AFETR","APOAPSIS":"541.289","EPHEMERIS_TYPE":"0","ARG_OF_PERICENTER":"54.4089","OBJECT_NAME":"STARLINK-3517","MEAN_MOTION":"15.08844491","COUNTRY_CODE":"US","TLE_LINE2":"2 51735  53.2171  45.0227 0002251  54.4089 305.7113 15.08844491 39086","DECAY_DATE":null,"SEMIMAJOR_AXIS":"6917.867","NORAD_CAT_ID":"51735","RA_OF_ASC_NODE":"45.0227","BSTAR":"0.00009907600000","REF_FRAME":"TEME","MEAN_ELEMENT_THEORY":"SGP4","ECCENTRICITY":"0.00022510","RCS_SIZE":"LARGE","REV_AT_EPOCH":"3908","MEAN_ANOMALY":"305.7113","ELEMENT_SET_NO":"999","OBJECT_TYPE":"PAYLOAD","TLE_LINE1":"1 51735U 22016X   22307.66262516  .00001289  00000-0  99076-4 0  9995","MEAN_MOTION_DOT":"0.00001289","PERIAPSIS":"538.174","CENTER_NAME":"EARTH"},{"ELEMENT_SET_NO":"999","MEAN_ANOMALY":"322.4782","PERIAPSIS":"538.281","MEAN_MOTION_DOT":"0.00005086","TLE_LINE1":"1 51736U 22016Y   22307.44918519  .00005086  00000-0  33732-3 0  9998","OBJECT_TYPE":"PAYLOAD","CENTER_NAME":"EARTH","RA_OF_ASC_NODE":"45.9639","BSTAR":"0.00033732000000","NORAD_CAT_ID":"51736","SEMIMAJOR_AXIS":"6917.839","REF_FRAME":"TEME","RCS_SIZE":"LARGE","REV_AT_EPOCH":"3904","ECCENTRICITY":"0.00020570","MEAN_ELEMENT_THEORY":"SGP4","CLASSIFICATION_TYPE":"U","OBJECT_ID":"2022-016Y","PERIOD":"95.437","FILE":"3643813","ARG_OF_PERICENTER":"37.6354","OBJECT_NAME":"STARLINK-3447","EPHEMERIS_TYPE":"0","APOAPSIS":"541.127","SITE":"AFETR","DECAY_DATE":null,"COUNTRY_CODE":"US","TLE_LINE2":"2 51736  53.2173  45.9639 0002057  37.6354 322.4782 15.08853509 39041","MEAN_MOTION":"15.08853509","GP_ID":"216832395","INCLINATION":"53.2173","EPOCH":"2022-11-03T10:46:49.600416","TIME_SYSTEM":"UTC","MEAN_MOTION_DDOT":"0.0000000000000","LAUNCH_DATE":"2022-02-21"},{"ELEMENT_SET_NO":"999","MEAN_ANOMALY":"323.0792","PERIAPSIS":"538.326","OBJECT_TYPE":"PAYLOAD","TLE_LINE1":"1 51737U 22016Z   22307.52646320  .00002985  00000-0  20552-3 0  9997","MEAN_MOTION_DOT":"0.00002985","CENTER_NAME":"EARTH","BSTAR":"0.00020552000000","RA_OF_ASC_NODE":"45.6209","NORAD_CAT_ID":"51737","SEMIMAJOR_AXIS":"6917.850","REF_FRAME":"TEME","REV_AT_EPOCH":"3905","RCS_SIZE":"LARGE","MEAN_ELEMENT_THEORY":"SGP4","ECCENTRICITY":"0.00020080","CLASSIFICATION_TYPE":"U","FILE":"3643813","OBJECT_ID":"2022-016Z","PERIOD":"95.437","SITE":"AFETR","APOAPSIS":"541.104","EPHEMERIS_TYPE":"0","ARG_OF_PERICENTER":"37.0339","OBJECT_NAME":"STARLINK-3509","COUNTRY_CODE":"US","TLE_LINE2":"2 51737  53.2191  45.6209 0002008  37.0339 323.0792 15.08849989 39051","DECAY_DATE":null,"MEAN_MOTION":"15.08849989","GP_ID":"216833147","INCLINATION":"53.2191","EPOCH":"2022-11-03T12:38:06.420480","TIME_SYSTEM":"UTC","LAUNCH_DATE":"2022-02-21","MEAN_MOTION_DDOT":"0.0000000000000"}];
